NORAD_CAT_ID,OBJECT_NAME,OBJECT_TYPE,EPOCH,MEAN_MOTION,ECCENTRICITY,INCLINATION,RA_OF_ASC_NODE,ARG_OF_PERICENTER,MEAN_ANOMALY,BSTAR,MEAN_MOTION_DOT,MEAN_MOTION_DDOT,TLE_LINE0,TLE_LINE1,TLE_LINE2,SEMIMAJOR_AXIS,PERIOD,APOGEE,PERIGEE,DECAYED
55759.0,STARLINK-5081,PAYLOAD,2024-07-09 12:15:54,14.98329283,0.0003084,70.0006,317.9417,270.3282,89.7524,1.2831e-05,6e-07,0.0,0 STARLINK-5081,1 55759U 23028U   24191.51104677  .00000060  00000-0  12831-4 0  9999,2 55759  70.0006 317.9417 0003084 270.3282  89.7524 14.98329283 75430,6950.195,96.107,574.204,569.917,0.0
55759.0,STARLINK-5081,PAYLOAD,2024-07-09 13:52:02,14.98329524,0.0003088,70.0006,317.7734,270.3275,89.753,1.5719e-05,9.5e-07,0.0,0 STARLINK-5081,1 55759U 23028U   24191.57780654  .00000095  00000-0  15719-4 0  9996,2 55759  70.0006 317.7734 0003088 270.3275  89.7530 14.98329524 75442,6950.194,96.107,574.206,569.913,0.0
55759.0,STARLINK-5081,PAYLOAD,2024-07-09 18:40:26,14.98331078,0.0003102,70.0006,317.2684,270.4339,89.6465,2.1731e-05,1.66e-06,0.0,0 STARLINK-5081,1 55759U 23028U   24191.77808533  .00000166  00000-0  21731-4 0  9995,2 55759  70.0006 317.2684 0003102 270.4339  89.6465 14.98331078 75476,6950.19,96.107,574.211,569.899,0.0
55759.0,STARLINK-5081,PAYLOAD,2024-07-10 10:41:47,14.98331077,0.0003073,70.0006,315.5853,270.189,89.8917,-4.6805e-06,-1.49e-06,0.0,0 STARLINK-5081,1 55759U 23028U   24192.44568592 -.00000149  00000-0 -46805-5 0  9991,2 55759  70.0006 315.5853 0003073 270.1890  89.8917 14.98331077 75575,6950.19,96.107,574.19,569.919,0.0
55759.0,STARLINK-5081,PAYLOAD,2024-07-11 13:56:04,14.98328255,0.0003109,70.0007,312.7242,270.4758,89.6044,2.1207e-05,1.6e-06,0.0,0 STARLINK-5081,1 55759U 23028U   24193.58060699  .00000160  00000-0  21207-4 0  9991,2 55759  70.0007 312.7242 0003109 270.4758  89.6044 14.98328255 75745,6950.198,96.107,574.224,569.902,0.0
55759.0,STARLINK-5081,PAYLOAD,2024-07-12 13:58:05,14.98331077,0.0003078,70.0009,310.1998,267.3241,92.7565,5.6472e-05,5.81e-06,0.0,0 STARLINK-5081,1 55759U 23028U   24194.58200444  .00000581  00000-0  56472-4 0  9995,2 55759  70.0009 310.1998 0003078 267.3241  92.7565 14.98331077 75899,6950.19,96.107,574.194,569.915,0.0
55759.0,STARLINK-5081,PAYLOAD,2024-07-12 17:10:21,14.98333575,0.0003032,70.0011,309.8631,267.9804,92.1007,7.9037e-05,8.5e-06,0.0,0 STARLINK-5081,1 55759U 23028U   24194.71552221  .00000850  00000-0  79037-4 0  9994,2 55759  70.0011 309.8631 0003032 267.9804  92.1007 14.98333575 75915,6950.182,96.107,574.154,569.94,0.0
55759.0,STARLINK-5081,PAYLOAD,2024-07-13 14:00:06,14.98332235,0.0003099,70.001,307.675,268.8179,91.2625,4.9574e-05,4.99e-06,0.0,0 STARLINK-5081,1 55759U 23028U   24195.58340293  .00000499  00000-0  49574-4 0  9996,2 55759  70.0010 307.6750 0003099 268.8179  91.2625 14.98332235 76043,6950.186,96.107,574.205,569.897,0.0
55759.0,STARLINK-5081,PAYLOAD,2024-07-13 17:12:21,14.98334338,0.0003033,70.0012,307.3389,268.632,91.4492,7.5899e-05,8.13e-06,0.0,0 STARLINK-5081,1 55759U 23028U   24195.71692077  .00000813  00000-0  75899-4 0  9990,2 55759  70.0012 307.3389 0003033 268.6320  91.4492 14.98334338 76066,6950.179,96.107,574.152,569.936,0.0
55759.0,STARLINK-5081,PAYLOAD,2024-07-14 01:13:02,14.98329029,0.0003156,70.0008,306.4941,270.6101,89.4697,-1.5167e-05,-2.74e-06,0.0,0 STARLINK-5081,1 55759U 23028U   24196.05072586 -.00000274  00000-0 -15167-4 0  9990,2 55759  70.0008 306.4941 0003156 270.6101  89.4697 14.98329029 76112,6950.196,96.107,574.254,569.867,0.0
55759.0,STARLINK-5081,PAYLOAD,2024-07-14 14:02:07,14.98331141,0.0003042,70.0006,305.149,270.1593,89.9217,1.1244e-05,4.1e-07,0.0,0 STARLINK-5081,1 55759U 23028U   24196.58480537  .00000041  00000-0  11244-4 0  9999,2 55759  70.0006 305.1490 0003042 270.1593  89.9217 14.98331141 76198,6950.189,96.107,574.169,569.94,0.0
55759.0,STARLINK-5081,PAYLOAD,2024-07-14 17:14:23,14.9833501,0.0003259,70.0003,304.8127,272.3709,87.7077,3.456e-06,-5.2e-07,0.0,0 STARLINK-5081,1 55759U 23028U   24196.71832286 -.00000052  00000-0  34560-5 0  9996,2 55759  70.0003 304.8127 0003259 272.3709  87.7077 14.98335010 76213,6950.177,96.107,574.307,569.777,0.0
55759.0,STARLINK-5081,PAYLOAD,2024-07-15 12:27:59,14.98332221,0.0003046,70.0009,302.7928,273.0925,86.9885,5.7185e-05,5.89e-06,0.0,0 STARLINK-5081,1 55759U 23028U   24197.51944324  .00000589  00000-0  57185-4 0  9993,2 55759  70.0009 302.7928 0003046 273.0925  86.9885 14.98332221 76339,6950.186,96.107,574.168,569.934,0.0
55759.0,STARLINK-5081,PAYLOAD,2024-07-15 14:04:07,14.98331216,0.0003125,70.0009,302.6245,273.9151,86.1651,0.00020956,2.408e-05,0.0,0 STARLINK-5081,1 55759U 23028U   24197.58619988  .00002408  00000-0  20956-3 0  9992,2 55759  70.0009 302.6245 0003125 273.9151  86.1651 14.98331216 76345,6950.189,96.107,574.226,569.882,0.0
55759.0,STARLINK-5081,PAYLOAD,2024-07-15 17:16:23,14.98338973,0.0003027,70.0011,302.2888,270.8941,89.1871,0.00010434,1.152e-05,0.0,0 STARLINK-5081,1 55759U 23028U   24197.71971704  .00001152  00000-0  10434-3 0  9999,2 55759  70.0011 302.2888 0003027 270.8941  89.1871 14.98338973 76367,6950.165,96.106,574.134,569.926,0.0
55759.0,STARLINK-5081,PAYLOAD,2024-07-15 23:40:56,14.98332154,0.0002997,70.0014,301.6156,270.5624,89.5192,2.8078e-06,-5.9e-07,0.0,0 STARLINK-5081,1 55759U 23028U   24197.98676273 -.00000059  00000-0  28078-5 0  9992,2 55759  70.0014 301.6156 0002997 270.5624  89.5192 14.98332154 76401,6950.186,96.107,574.134,569.968,0.0
55759.0,STARLINK-5081,PAYLOAD,2024-07-16 14:06:08,14.98328439,0.0002892,70.0011,300.1011,270.0467,90.0361,7.7826e-05,8.36e-06,0.0,0 STARLINK-5081,1 55759U 23028U   24198.58760394  .00000836  00000-0  77826-4 0  9993,2 55759  70.0011 300.1011 0002892 270.0467  90.0361 14.98328439 76491,6950.198,96.107,574.073,570.053,0.0
55759.0,STARLINK-5081,PAYLOAD,2024-07-16 17:18:24,14.98332412,0.0002968,70.0013,299.7646,273.6436,86.4384,0.00014139,1.595e-05,0.0,0 STARLINK-5081,1 55759U 23028U   24198.72111977  .00001595  00000-0  14139-3 0  9996,2 55759  70.0013 299.7646 0002968 273.6436  86.4384 14.98332412 76512,6950.185,96.107,574.113,569.988,0.0
55759.0,STARLINK-5081,PAYLOAD,2024-07-17 12:32:01,14.98335433,0.0002833,70.0011,297.7449,266.0508,94.0327,-2.0989e-09,-9.3e-07,0.0,0 STARLINK-5081,1 55759U 23028U   24199.52223994 -.00000093  00000-0 -20989-8 0  9997,2 55759  70.0011 297.7449 0002833 266.0508  94.0327 14.98335433 76637,6950.176,96.107,574.01,570.072,0.0
55759.0,STARLINK-5081,PAYLOAD,2024-07-17 14:08:09,14.98338038,0.0002806,70.001,297.5763,266.0906,93.9932,2.6901e-05,2.28e-06,0.0,0 STARLINK-5081,1 55759U 23028U   24199.58899730  .00000228  00000-0  26901-4 0  9994,2 55759  70.0010 297.5763 0002806 266.0906  93.9932 14.98338038 76640,6950.168,96.106,573.983,570.083,0.0
55759.0,STARLINK-5081,PAYLOAD,2024-07-17 15:44:17,14.98339677,0.0002777,70.0012,297.4086,265.3314,94.7528,5.2395e-05,5.32e-06,0.0,0 STARLINK-5081,1 55759U 23028U   24199.65575532  .00000532  00000-0  52395-4 0  9997,2 55759  70.0012 297.4086 0002777 265.3314  94.7528 14.98339677 76652,6950.163,96.106,573.958,570.098,0.0
55759.0,STARLINK-5081,PAYLOAD,2024-07-18 12:34:03,14.98320412,0.0002814,70.001,295.2207,266.7221,93.3616,-5.4417e-05,-7.42e-06,0.0,0 STARLINK-5081,1 55759U 23028U   24200.52365036 -.00000742  00000-0 -54417-4 0  9994,2 55759  70.0010 295.2207 0002814 266.7221  93.3616 14.98320412 76789,6950.223,96.108,574.043,570.132,0.0
55759.0,STARLINK-5081,PAYLOAD,2024-07-18 14:10:11,14.98320181,0.0002762,70.0011,295.0525,266.5537,93.5307,-6.4004e-05,-8.56e-06,0.0,0 STARLINK-5081,1 55759U 23028U   24200.59041114 -.00000856  00000-0 -64004-4 0  9998,2 55759  70.0011 295.0525 0002762 266.5537  93.5307 14.98320181 76794,6950.223,96.108,574.008,570.169,0.0
55759.0,STARLINK-5081,PAYLOAD,2024-07-18 15:46:19,14.98320858,0.0002768,70.0011,294.8842,266.8783,93.206,-5.4601e-05,-7.44e-06,0.0,0 STARLINK-5081,1 55759U 23028U   24200.65717079 -.00000744  00000-0 -54601-4 0  9993,2 55759  70.0011 294.8842 0002768 266.8783  93.2060 14.98320858 76801,6950.221,96.108,574.01,570.162,0.0
55759.0,STARLINK-5081,PAYLOAD,2024-07-19 12:36:03,14.98332062,0.0002919,70.0004,292.695,263.5274,96.5552,1.1156e-05,4e-07,0.0,0 STARLINK-5081,1 55759U 23028U   24201.52504227  .00000040  00000-0  11156-4 0  9994,2 55759  70.0004 292.6950 0002919 263.5274  96.5552 14.98332062 76932,6950.187,96.107,574.08,570.023,0.0
55759.0,STARLINK-5081,PAYLOAD,2024-07-19 14:12:11,14.98334859,0.0003087,69.9999,292.5262,266.7906,93.29,2.923e-05,2.56e-06,0.0,0 STARLINK-5081,1 55759U 23028U   24201.59180014  .00000256  00000-0  29230-4 0  9996,2 55759  69.9999 292.5262 0003087 266.7906  93.2900 14.98334859 76949,6950.178,96.107,574.188,569.897,0.0
55759.0,STARLINK-5081,PAYLOAD,2024-07-19 15:48:20,14.98327925,0.0003285,69.9993,292.356,269.7728,90.3055,-5.2486e-06,-1.56e-06,0.0,0 STARLINK-5081,1 55759U 23028U   24201.65856497 -.00000156  00000-0 -52486-5 0  9999,2 55759  69.9993 292.3560 0003285 269.7728  90.3055 14.98327925 76953,6950.199,96.107,574.347,569.781,0.0
55759.0,STARLINK-5081,PAYLOAD,2024-07-19 23:49:03,14.98299739,0.0002224,70.0022,291.5151,277.7707,82.3199,-0.00035144,-4.28e-05,0.0,0 STARLINK-5081,1 55759U 23028U   24201.99239890 -.00004280  00000-0 -35144-3 0  9990,2 55759  70.0022 291.5151 0002224 277.7707  82.3199 14.98299739 77002,6950.286,96.109,573.697,570.606,0.0
55759.0,STARLINK-5081,PAYLOAD,2024-07-20 12:38:06,14.98316712,0.0002735,70.0001,290.1668,263.6657,96.419,5.3152e-05,5.41e-06,0.0,0 STARLINK-5081,1 55759U 23028U   24202.52646349  .00000541  00000-0  53152-4 0  9995,2 55759  70.0001 290.1668 0002735 263.6657  96.4190 14.98316712 77088,6950.234,96.108,574.0,570.198,0.0
55759.0,STARLINK-5081,PAYLOAD,2024-07-20 14:14:14,14.98316693,0.0002573,70.0007,289.9991,264.4236,95.663,9.1009e-05,9.93e-06,0.0,0 STARLINK-5081,1 55759U 23028U   24202.59322344  .00000993  00000-0  91009-4 0  9992,2 55759  70.0007 289.9991 0002573 264.4236  95.6630 14.98316693 77090,6950.234,96.108,573.887,570.311,0.0
